{
    "links": {
        "self": "http://www.neowsapp.com/rest/v1/neo/54062083?api_key=iIulBulltgU6a56xZRHN4H3l9WmuAYTsLGpBGhQ2"
    },
    "id": "54062083",
    "neo_reference_id": "54062083",
    "name": "(2020 TV4)",
    "designation": "2020 TV4",
    "nasa_jpl_url": "http://ssd.jpl.nasa.gov/sbdb.cgi?sstr=54062083",
    "absolute_magnitude_h": 26.041,
    "estimated_diameter": {
        "kilometers": {
            "estimated_diameter_min": 0.0164571632,
            "estimated_diameter_max": 0.0367993357
        },
        "meters": {
            "estimated_diameter_min": 16.4571632264,
            "estimated_diameter_max": 36.7993356911
        },
        "miles": {
            "estimated_diameter_min": 0.010226004,
            "estimated_diameter_max": 0.02286604
        },
        "feet": {
            "estimated_diameter_min": 53.9933193999,
            "estimated_diameter_max": 120.7327325089
        }
    },
    "is_potentially_hazardous_asteroid": false,
    "close_approach_data": [
        {
            "close_approach_date": "2020-10-10",
            "close_approach_date_full": "2020-Oct-10 16:47",
            "epoch_date_close_approach": 1602348420000,
            "relative_velocity": {
                "kilometers_per_second": "20.8167644539",
                "kilometers_per_hour": "74940.3520339392",
                "miles_per_hour": "46565.0204068663"
            },
            "miss_distance": {
                "astronomical": "0.0179948303",
                "lunar": "6.9999889867",
                "kilometers": "2691988.283891461",
                "miles": "1672723.9543697218"
            },
            "orbiting_body": "Earth"
        },
        {
            "close_approach_date": "2121-04-14",
            "close_approach_date_full": "2121-Apr-14 12:11",
            "epoch_date_close_approach": 4774075860000,
            "relative_velocity": {
                "kilometers_per_second": "5.7941891297",
                "kilometers_per_hour": "20859.0808668151",
                "miles_per_hour": "12961.0216641607"
            },
            "miss_distance": {
                "astronomical": "1.3220538018",
                "lunar": "514.2789289002",
                "kilometers": "197776432.774682166",
                "miles": "122892576.7216832508"
            },
            "orbiting_body": "Juptr"
        }
    ],
    "orbital_data": {
        "orbit_id": "3",
        "orbit_determination_date": "2020-10-18 08:06:51",
        "first_observation_date": "2020-10-12",
        "last_observation_date": "2020-10-18",
        "data_arc_in_days": 6,
        "observations_used": 23,
        "orbit_uncertainty": "8",
        "minimum_orbit_intersection": ".0170921",
        "jupiter_tisserand_invariant": "3.061",
        "epoch_osculation": "2459137.5",
        "eccentricity": ".7259331906027647",
        "semi_major_axis": "2.446933405761053",
        "inclination": "7.702053004002555",
        "ascending_node_longitude": "204.309837097813",
        "orbital_period": "1398.078805262518",
        "perihelion_distance": ".6706232313244423",
        "perihelion_argument": "95.1779024878731",
        "aphelion_distance": "4.223243580197664",
        "perihelion_time": "2459089.005844791902",
        "mean_anomaly": "12.4870613939657",
        "mean_motion": ".2574962145516558",
        "equinox": "J2000",
        "orbit_class": {
            "orbit_class_type": "APO",
            "orbit_class_description": "Near-Earth asteroid orbits which cross the Earth’s orbit similar to that of 1862 Apollo",
            "orbit_class_range": "a (semi-major axis) > 1.0 AU; q (perihelion) < 1.017 AU"
        }
    },
    "is_sentry_object": false
}